[{"OBJECT_NAME":"NESS","OBJECT_ID":"2023-155E","EPOCH":"2026-03-09T18:20:54.923712","MEAN_MOTION":15.26794015,"ECCENTRICITY":0.00068914,"INCLINATION":97.5941,"RA_OF_ASC_NODE":152.6141,"ARG_OF_PERICENTER":179.8776,"MEAN_ANOMALY":180.2465,"EPHEMERIS_TYPE":0,"CLASSIFICATION_TYPE":"U","NORAD_CAT_ID":58020,"ELEMENT_SET_NO":999,"REV_AT_EPOCH":13330,"BSTAR":0.00074047066,"MEAN_MOTION_DOT":0.00019469,"MEAN_MOTION_DDOT":0},{"OBJECT_NAME":"STARLINK-32525","OBJECT_ID":"2024-222H","EPOCH":"2026-03-09T05:47:27.140640","MEAN_MOTION":15.27587818,"ECCENTRICITY":2.847e-5,"INCLINATION":42.9961,"RA_OF_ASC_NODE":138.4382,"ARG_OF_PERICENTER":215.4842,"MEAN_ANOMALY":144.5991,"EPHEMERIS_TYPE":0,"CLASSIFICATION_TYPE":"U","NORAD_CAT_ID":62121,"ELEMENT_SET_NO":999,"REV_AT_EPOCH":7269,"BSTAR":0.0010172524,"MEAN_MOTION_DOT":0.00027843,"MEAN_MOTION_DDOT":0}]
