NESS                    
1 58020U 23155E   26068.76452457  .00019469  00000+0  74047-3 0  9996
2 58020  97.5941 152.6141 0006891 179.8776 180.2465 15.26794015133307
STARLINK-32525          
1 62121U 24222H   26068.24128635  .00027843  00000+0  10173-2 0  9994
2 62121  42.9961 138.4382 0000284 215.4842 144.5991 15.27587818 72693
